[{"OBJECT_NAME":"OBJECT A","OBJECT_ID":"2025-292A","EPOCH":"2026-03-09T21:45:44.016480","MEAN_MOTION":15.05451809,"ECCENTRICITY":0.00146319,"INCLINATION":97.6364,"RA_OF_ASC_NODE":145.598,"ARG_OF_PERICENTER":341.1551,"MEAN_ANOMALY":18.9132,"EPHEMERIS_TYPE":0,"CLASSIFICATION_TYPE":"U","NORAD_CAT_ID":66993,"ELEMENT_SET_NO":999,"REV_AT_EPOCH":1350,"BSTAR":0.00038878249,"MEAN_MOTION_DOT":5.535e-5,"MEAN_MOTION_DDOT":0},{"OBJECT_NAME":"OBJECT D","OBJECT_ID":"2025-292D","EPOCH":"2026-03-09T21:45:32.907168","MEAN_MOTION":15.05344615,"ECCENTRICITY":0.00138692,"INCLINATION":97.6365,"RA_OF_ASC_NODE":145.5948,"ARG_OF_PERICENTER":343.7291,"MEAN_ANOMALY":16.3488,"EPHEMERIS_TYPE":0,"CLASSIFICATION_TYPE":"U","NORAD_CAT_ID":66996,"ELEMENT_SET_NO":999,"REV_AT_EPOCH":1350,"BSTAR":0.00030674408,"MEAN_MOTION_DOT":4.34e-5,"MEAN_MOTION_DDOT":0}]
